[{"OBJECT_NAME":"JILIN-1 GAOFEN 3D05","OBJECT_ID":"2022-046C","EPOCH":"2026-03-09T22:14:05.502048","MEAN_MOTION":15.79566561,"ECCENTRICITY":0.00034624,"INCLINATION":97.4788,"RA_OF_ASC_NODE":183.2966,"ARG_OF_PERICENTER":238.0487,"MEAN_ANOMALY":122.0443,"EPHEMERIS_TYPE":0,"CLASSIFICATION_TYPE":"U","NORAD_CAT_ID":52390,"ELEMENT_SET_NO":999,"REV_AT_EPOCH":21496,"BSTAR":0.0012407399,"MEAN_MOTION_DOT":0.00230534,"MEAN_MOTION_DDOT":0},{"OBJECT_NAME":"STARLINK-36368","OBJECT_ID":"2026-035J","EPOCH":"2026-03-09T22:00:01.999584","MEAN_MOTION":15.87092979,"ECCENTRICITY":0.00011961,"INCLINATION":97.2708,"RA_OF_ASC_NODE":1.2694,"ARG_OF_PERICENTER":82.2159,"MEAN_ANOMALY":353.4412,"EPHEMERIS_TYPE":0,"CLASSIFICATION_TYPE":"U","NORAD_CAT_ID":67887,"ELEMENT_SET_NO":999,"REV_AT_EPOCH":379,"BSTAR":-0.0053612353,"MEAN_MOTION_DOT":-0.01229283,"MEAN_MOTION_DDOT":0}]
